LIJIAN-2 R/B            
1 68413U 26066B   26090.76704925  .02524605 -11587-5  21175-3 0  9990
2 68413  84.7161 277.0200 0605231 206.6432 150.2503 15.04815352   201
SL-4 R/B                
1 68537U 26061S   26091.47005641  .00183726  10942-4  57404-3 0  9999
2 68537  82.3054  98.7857 0026417  37.7313 322.5805 15.90800342  1391
ARTEMIS 2               
1 68538U 26069A   26091.94677083  .00000000  00000+0  00000+0 0  9993
2 68538  28.5261   3.4072 1465270  67.9232  24.0215 13.36122280    08
